*******************************************************************************
Ephemeris / WWW_USER Sat Dec 17 19:54:58 2016 Pasadena, USA      / Horizons    
*******************************************************************************
Target body name: Moon (301)                      {source: DE431mx}
Center body name: Earth (399)                     {source: DE431mx}
Center-site name: (user defined site below)
*******************************************************************************
Start time      : A.D. 2016-Dec-01 00:00:00.0000 UT      
Stop  time      : A.D. 2017-Apr-02 00:00:00.0000 UT      
Step-size       : 2 minutes
*******************************************************************************
Target pole/equ : IAU_MOON                        {East-longitude +}
Target radii    : 1737.4 x 1737.4 x 1737.4 km     {Equator, meridian, pole}    
Center geodetic : 241.855000,34.1456000,0.0000000 {E-lon(deg),Lat(deg),Alt(km)}
Center cylindric: 241.855000,5284.21009,3559.8244 {E-lon(deg),Dxy(km),Dz(km)}
Center pole/equ : High-precision EOP model        {East-longitude +}
Center radii    : 6378.1 x 6378.1 x 6356.8 km     {Equator, meridian, pole}    
Target primary  : Earth
Vis. interferer : MOON (R_eq= 1737.400) km        {source: DE431mx}
Rel. light bend : Sun, EARTH                      {source: DE431mx}
Rel. lght bnd GM: 1.3271E+11, 3.9860E+05 km^3/s^2                              
Atmos refraction: NO (AIRLESS)
RA format       : HMS
Time format     : CAL 
RTS-only print  : NO       
EOP file        : eop.161216.p170309                                           
EOP coverage    : DATA-BASED 1962-JAN-20 TO 2016-DEC-16. PREDICTS-> 2017-MAR-08
Units conversion: 1 au= 149597870.700 km, c= 299792.458 km/s, 1 day= 86400.0 s 
Table cut-offs 1: Elevation (-90.0deg=NO ),Airmass (>38.000=NO), Daylight (NO )
Table cut-offs 2: Solar Elongation (  0.0,180.0=NO ),Local Hour Angle( 0.0=NO )
*******************************************************************************
 Date__(UT)__HR:MN     Azi_(a-appr)_Elev
****************************************
$$SOE
 2017-Mar-09 16:00 *   329.2335 -35.7759
 2017-Mar-09 16:02 *   329.7438 -35.9799
 2017-Mar-09 16:04 *   330.2572 -36.1808
 2017-Mar-09 16:06 *   330.7738 -36.3787
 2017-Mar-09 16:08 *   331.2935 -36.5734
 2017-Mar-09 16:10 *   331.8163 -36.7650
 2017-Mar-09 16:12 *   332.3421 -36.9534
 2017-Mar-09 16:14 *   332.8710 -37.1386
 2017-Mar-09 16:16 *   333.4030 -37.3205
 2017-Mar-09 16:18 *   333.9380 -37.4992
 2017-Mar-09 16:20 *   334.4760 -37.6745
 2017-Mar-09 16:22 *   335.0169 -37.8465
 2017-Mar-09 16:24 *   335.5608 -38.0151
 2017-Mar-09 16:26 *   336.1077 -38.1803
 2017-Mar-09 16:28 *   336.6574 -38.3420
 2017-Mar-09 16:30 *   337.2099 -38.5002
 2017-Mar-09 16:32 *   337.7653 -38.6550
 2017-Mar-09 16:34 *   338.3234 -38.8062
 2017-Mar-09 16:36 *   338.8843 -38.9538
 2017-Mar-09 16:38 *   339.4479 -39.0978
 2017-Mar-09 16:40 *   340.0141 -39.2381
 2017-Mar-09 16:42 *   340.5829 -39.3748
 2017-Mar-09 16:44 *   341.1543 -39.5078
 2017-Mar-09 16:46 *   341.7282 -39.6371
 2017-Mar-09 16:48 *   342.3046 -39.7626
 2017-Mar-09 16:50 *   342.8833 -39.8843
 2017-Mar-09 16:52 *   343.4645 -40.0022
 2017-Mar-09 16:54 *   344.0479 -40.1163
 2017-Mar-09 16:56 *   344.6335 -40.2265
 2017-Mar-09 16:58 *   345.2213 -40.3328
 2017-Mar-09 17:00 *   345.8112 -40.4352
 2017-Mar-09 17:02 *   346.4031 -40.5337
 2017-Mar-09 17:04 *   346.9970 -40.6281
 2017-Mar-09 17:06 *   347.5928 -40.7186
 2017-Mar-09 17:08 *   348.1905 -40.8051
 2017-Mar-09 17:10 *   348.7899 -40.8876
 2017-Mar-09 17:12 *   349.3909 -40.9660
 2017-Mar-09 17:14 *   349.9936 -41.0403
 2017-Mar-09 17:16 *   350.5978 -41.1106
 2017-Mar-09 17:18 *   351.2034 -41.1767
 2017-Mar-09 17:20 *   351.8105 -41.2387
 2017-Mar-09 17:22 *   352.4188 -41.2966
 2017-Mar-09 17:24 *   353.0283 -41.3504
 2017-Mar-09 17:26 *   353.6389 -41.3999
 2017-Mar-09 17:28 *   354.2505 -41.4453
 2017-Mar-09 17:30 *   354.8631 -41.4865
 2017-Mar-09 17:32 *   355.4766 -41.5235
 2017-Mar-09 17:34 *   356.0908 -41.5562
 2017-Mar-09 17:36 *   356.7056 -41.5848
 2017-Mar-09 17:38 *   357.3211 -41.6091
 2017-Mar-09 17:40 *   357.9371 -41.6292
 2017-Mar-09 17:42 *   358.5534 -41.6450
 2017-Mar-09 17:44 *   359.1701 -41.6566
 2017-Mar-09 17:46 *   359.7870 -41.6640
 2017-Mar-09 17:48 *     0.4040 -41.6671
 2017-Mar-09 17:50 *     1.0211 -41.6660
 2017-Mar-09 17:52 *     1.6381 -41.6606
 2017-Mar-09 17:54 *     2.2549 -41.6509
 2017-Mar-09 17:56 *     2.8715 -41.6371
 2017-Mar-09 17:58 *     3.4878 -41.6189
 2017-Mar-09 18:00 *     4.1036 -41.5966
 2017-Mar-09 18:02 *     4.7190 -41.5700
 2017-Mar-09 18:04 *     5.3337 -41.5392
 2017-Mar-09 18:06 *     5.9477 -41.5041
 2017-Mar-09 18:08 *     6.5609 -41.4649
 2017-Mar-09 18:10 *     7.1733 -41.4214
 2017-Mar-09 18:12 *     7.7846 -41.3738
 2017-Mar-09 18:14 *     8.3950 -41.3220
 2017-Mar-09 18:16 *     9.0042 -41.2661
 2017-Mar-09 18:18 *     9.6121 -41.2060
 2017-Mar-09 18:20 *    10.2188 -41.1417
 2017-Mar-09 18:22 *    10.8241 -41.0734
 2017-Mar-09 18:24 *    11.4279 -41.0009
 2017-Mar-09 18:26 *    12.0302 -40.9244
 2017-Mar-09 18:28 *    12.6309 -40.8438
 2017-Mar-09 18:30 *    13.2298 -40.7592
 2017-Mar-09 18:32 *    13.8270 -40.6706
 2017-Mar-09 18:34 *    14.4224 -40.5779
 2017-Mar-09 18:36 *    15.0158 -40.4813
 2017-Mar-09 18:38 *    15.6073 -40.3808
 2017-Mar-09 18:40 *    16.1967 -40.2763
 2017-Mar-09 18:42 *    16.7840 -40.1679
 2017-Mar-09 18:44 *    17.3691 -40.0556
 2017-Mar-09 18:46 *    17.9520 -39.9395
 2017-Mar-09 18:48 *    18.5326 -39.8195
 2017-Mar-09 18:50 *    19.1109 -39.6958
 2017-Mar-09 18:52 *    19.6867 -39.5683
 2017-Mar-09 18:54 *    20.2601 -39.4370
 2017-Mar-09 18:56 *    20.8309 -39.3020
 2017-Mar-09 18:58 *    21.3992 -39.1634
 2017-Mar-09 19:00 *    21.9649 -39.0211
 2017-Mar-09 19:02 *    22.5280 -38.8751
 2017-Mar-09 19:04 *    23.0884 -38.7256
 2017-Mar-09 19:06 *    23.6460 -38.5725
 2017-Mar-09 19:08 *    24.2008 -38.4159
 2017-Mar-09 19:10 *    24.7529 -38.2558
 2017-Mar-09 19:12 *    25.3021 -38.0923
 2017-Mar-09 19:14 *    25.8484 -37.9253
 2017-Mar-09 19:16 *    26.3919 -37.7549
 2017-Mar-09 19:18 *    26.9324 -37.5811
 2017-Mar-09 19:20 *    27.4699 -37.4040
 2017-Mar-09 19:22 *    28.0045 -37.2236
 2017-Mar-09 19:24 *    28.5360 -37.0400
 2017-Mar-09 19:26 *    29.0645 -36.8531
 2017-Mar-09 19:28 *    29.5900 -36.6630
 2017-Mar-09 19:30 *    30.1124 -36.4697
 2017-Mar-09 19:32 *    30.6318 -36.2733
 2017-Mar-09 19:34 *    31.1480 -36.0739
 2017-Mar-09 19:36 *    31.6612 -35.8713
 2017-Mar-09 19:38 *    32.1712 -35.6658
 2017-Mar-09 19:40 *    32.6782 -35.4572
 2017-Mar-09 19:42 *    33.1819 -35.2457
 2017-Mar-09 19:44 *    33.6826 -35.0313
 2017-Mar-09 19:46 *    34.1801 -34.8140
 2017-Mar-09 19:48 *    34.6745 -34.5938
 2017-Mar-09 19:50 *    35.1658 -34.3708
 2017-Mar-09 19:52 *    35.6539 -34.1450
 2017-Mar-09 19:54 *    36.1388 -33.9165
 2017-Mar-09 19:56 *    36.6207 -33.6852
 2017-Mar-09 19:58 *    37.0994 -33.4513
 2017-Mar-09 20:00 *    37.5749 -33.2147
 2017-Mar-09 20:02 *    38.0474 -32.9755
 2017-Mar-09 20:04 *    38.5168 -32.7337
 2017-Mar-09 20:06 *    38.9830 -32.4893
 2017-Mar-09 20:08 *    39.4462 -32.2424
 2017-Mar-09 20:10 *    39.9063 -31.9931
 2017-Mar-09 20:12 *    40.3633 -31.7412
 2017-Mar-09 20:14 *    40.8172 -31.4870
 2017-Mar-09 20:16 *    41.2682 -31.2303
 2017-Mar-09 20:18 *    41.7161 -30.9713
 2017-Mar-09 20:20 *    42.1610 -30.7100
 2017-Mar-09 20:22 *    42.6029 -30.4464
 2017-Mar-09 20:24 *    43.0418 -30.1804
 2017-Mar-09 20:26 *    43.4777 -29.9123
 2017-Mar-09 20:28 *    43.9108 -29.6419
 2017-Mar-09 20:30 *    44.3409 -29.3694
 2017-Mar-09 20:32 *    44.7681 -29.0947
 2017-Mar-09 20:34 *    45.1924 -28.8179
 2017-Mar-09 20:36 *    45.6139 -28.5390
 2017-Mar-09 20:38 *    46.0325 -28.2580
 2017-Mar-09 20:40 *    46.4483 -27.9750
 2017-Mar-09 20:42 *    46.8613 -27.6900
 2017-Mar-09 20:44 *    47.2716 -27.4030
 2017-Mar-09 20:46 *    47.6791 -27.1141
 2017-Mar-09 20:48 *    48.0838 -26.8232
 2017-Mar-09 20:50 *    48.4859 -26.5304
 2017-Mar-09 20:52 *    48.8853 -26.2358
 2017-Mar-09 20:54 *    49.2821 -25.9393
 2017-Mar-09 20:56 *    49.6762 -25.6410
 2017-Mar-09 20:58 *    50.0677 -25.3409
 2017-Mar-09 21:00 *    50.4567 -25.0390
 2017-Mar-09 21:02 *    50.8431 -24.7354
 2017-Mar-09 21:04 *    51.2270 -24.4301
 2017-Mar-09 21:06 *    51.6084 -24.1231
 2017-Mar-09 21:08 *    51.9873 -23.8144
 2017-Mar-09 21:10 *    52.3638 -23.5040
 2017-Mar-09 21:12 *    52.7378 -23.1921
 2017-Mar-09 21:14 *    53.1095 -22.8785
 2017-Mar-09 21:16 *    53.4788 -22.5634
 2017-Mar-09 21:18 *    53.8457 -22.2466
 2017-Mar-09 21:20 *    54.2104 -21.9284
 2017-Mar-09 21:22 *    54.5728 -21.6087
 2017-Mar-09 21:24 *    54.9329 -21.2874
 2017-Mar-09 21:26 *    55.2908 -20.9647
 2017-Mar-09 21:28 *    55.6465 -20.6406
 2017-Mar-09 21:30 *    56.0000 -20.3150
 2017-Mar-09 21:32 *    56.3513 -19.9880
 2017-Mar-09 21:34 *    56.7006 -19.6596
 2017-Mar-09 21:36 *    57.0478 -19.3299
 2017-Mar-09 21:38 *    57.3928 -18.9988
 2017-Mar-09 21:40 *    57.7359 -18.6664
 2017-Mar-09 21:42 *    58.0769 -18.3327
 2017-Mar-09 21:44 *    58.4160 -17.9977
 2017-Mar-09 21:46 *    58.7531 -17.6614
 2017-Mar-09 21:48 *    59.0883 -17.3239
 2017-Mar-09 21:50 *    59.4215 -16.9851
 2017-Mar-09 21:52 *    59.7529 -16.6452
 2017-Mar-09 21:54 *    60.0825 -16.3040
 2017-Mar-09 21:56 *    60.4102 -15.9616
 2017-Mar-09 21:58 *    60.7361 -15.6181
 2017-Mar-09 22:00 *    61.0602 -15.2735
 2017-Mar-09 22:02 *    61.3827 -14.9277
 2017-Mar-09 22:04 *    61.7033 -14.5808
 2017-Mar-09 22:06 *    62.0223 -14.2328
 2017-Mar-09 22:08 *    62.3397 -13.8837
 2017-Mar-09 22:10 *    62.6554 -13.5335
 2017-Mar-09 22:12 *    62.9695 -13.1824
 2017-Mar-09 22:14 *    63.2820 -12.8301
 2017-Mar-09 22:16 *    63.5929 -12.4769
 2017-Mar-09 22:18 *    63.9023 -12.1226
 2017-Mar-09 22:20 *    64.2102 -11.7674
 2017-Mar-09 22:22 *    64.5166 -11.4112
